[{"OBJECT_NAME":"STARLINK-2221","OBJECT_ID":"2021-041U","EPOCH":"2026-03-18T07:21:31.828032","MEAN_MOTION":15.30186388,"ECCENTRICITY":0.00013844,"INCLINATION":53.1596,"RA_OF_ASC_NODE":99.5603,"ARG_OF_PERICENTER":89.83,"MEAN_ANOMALY":270.2859,"EPHEMERIS_TYPE":0,"CLASSIFICATION_TYPE":"U","NORAD_CAT_ID":48571,"ELEMENT_SET_NO":999,"REV_AT_EPOCH":26641,"BSTAR":0.0001712769,"MEAN_MOTION_DOT":4.715e-5,"MEAN_MOTION_DDOT":0},{"OBJECT_NAME":"STARLINK-2222","OBJECT_ID":"2021-041V","EPOCH":"2026-03-18T07:32:02.826240","MEAN_MOTION":15.06390498,"ECCENTRICITY":0.0001304,"INCLINATION":53.0541,"RA_OF_ASC_NODE":102.902,"ARG_OF_PERICENTER":84.4999,"MEAN_ANOMALY":275.6138,"EPHEMERIS_TYPE":0,"CLASSIFICATION_TYPE":"U","NORAD_CAT_ID":48572,"ELEMENT_SET_NO":999,"REV_AT_EPOCH":26636,"BSTAR":8.6373322e-5,"MEAN_MOTION_DOT":1.005e-5,"MEAN_MOTION_DDOT":0},{"OBJECT_NAME":"STARLINK-2224","OBJECT_ID":"2021-041W","EPOCH":"2026-03-18T06:41:19.168512","MEAN_MOTION":15.30178961,"ECCENTRICITY":0.00010259,"INCLINATION":53.1605,"RA_OF_ASC_NODE":87.0379,"ARG_OF_PERICENTER":114.1877,"MEAN_ANOMALY":245.9232,"EPHEMERIS_TYPE":0,"CLASSIFICATION_TYPE":"U","NORAD_CAT_ID":48573,"ELEMENT_SET_NO":999,"REV_AT_EPOCH":26658,"BSTAR":4.2729831e-5,"MEAN_MOTION_DOT":9.06e-6,"MEAN_MOTION_DDOT":0},{"OBJECT_NAME":"STARLINK-2225","OBJECT_ID":"2021-041X","EPOCH":"2026-03-18T02:58:09.808896","MEAN_MOTION":15.30207182,"ECCENTRICITY":0.0001701,"INCLINATION":53.1585,"RA_OF_ASC_NODE":61.8252,"ARG_OF_PERICENTER":93.9302,"MEAN_ANOMALY":266.1893,"EPHEMERIS_TYPE":0,"CLASSIFICATION_TYPE":"U","NORAD_CAT_ID":48574,"ELEMENT_SET_NO":999,"REV_AT_EPOCH":26692,"BSTAR":0.00024096004,"MEAN_MOTION_DOT":6.785e-5,"MEAN_MOTION_DDOT":0},{"OBJECT_NAME":"STARLINK-2227","OBJECT_ID":"2021-041Y","EPOCH":"2026-03-18T03:58:02.974080","MEAN_MOTION":15.30193516,"ECCENTRICITY":0.00014847,"INCLINATION":53.1609,"RA_OF_ASC_NODE":48.8599,"ARG_OF_PERICENTER":82.4453,"MEAN_ANOMALY":277.6716,"EPHEMERIS_TYPE":0,"CLASSIFICATION_TYPE":"U","NORAD_CAT_ID":48575,"ELEMENT_SET_NO":999,"REV_AT_EPOCH":26712,"BSTAR":0.00011404859,"MEAN_MOTION_DOT":3.019e-5,"MEAN_MOTION_DDOT":0},{"OBJECT_NAME":"STARLINK-2228","OBJECT_ID":"2021-041Z","EPOCH":"2026-03-18T02:33:53.841888","MEAN_MOTION":15.30190081,"ECCENTRICITY":0.0001094,"INCLINATION":53.1578,"RA_OF_ASC_NODE":61.9137,"ARG_OF_PERICENTER":70.5864,"MEAN_ANOMALY":289.5255,"EPHEMERIS_TYPE":0,"CLASSIFICATION_TYPE":"U","NORAD_CAT_ID":48576,"ELEMENT_SET_NO":999,"REV_AT_EPOCH":26693,"BSTAR":0.00015028877,"MEAN_MOTION_DOT":4.093e-5,"MEAN_MOTION_DDOT":0},{"OBJECT_NAME":"STARLINK-2231","OBJECT_ID":"2021-041AA","EPOCH":"2026-03-18T06:21:35.379648","MEAN_MOTION":15.30192296,"ECCENTRICITY":0.00015979,"INCLINATION":53.1597,"RA_OF_ASC_NODE":87.0575,"ARG_OF_PERICENTER":101.0646,"MEAN_ANOMALY":259.0534,"EPHEMERIS_TYPE":0,"CLASSIFICATION_TYPE":"U","NORAD_CAT_ID":48577,"ELEMENT_SET_NO":999,"REV_AT_EPOCH":26658,"BSTAR":0.00017328502,"MEAN_MOTION_DOT":4.775e-5,"MEAN_MOTION_DDOT":0},{"OBJECT_NAME":"STARLINK-2232","OBJECT_ID":"2021-041AB","EPOCH":"2026-03-18T06:59:29.157216","MEAN_MOTION":15.30189371,"ECCENTRICITY":0.00012945,"INCLINATION":53.1592,"RA_OF_ASC_NODE":86.749,"ARG_OF_PERICENTER":96.3547,"MEAN_ANOMALY":263.7602,"EPHEMERIS_TYPE":0,"CLASSIFICATION_TYPE":"U","NORAD_CAT_ID":48578,"ELEMENT_SET_NO":999,"REV_AT_EPOCH":26659,"BSTAR":0.00025197767,"MEAN_MOTION_DOT":7.108e-5,"MEAN_MOTION_DDOT":0},{"OBJECT_NAME":"STARLINK-2234","OBJECT_ID":"2021-041AD","EPOCH":"2026-03-18T03:12:44.449056","MEAN_MOTION":15.30669877,"ECCENTRICITY":0.00021613,"INCLINATION":53.16,"RA_OF_ASC_NODE":61.7792,"ARG_OF_PERICENTER":292.4192,"MEAN_ANOMALY":67.658,"EPHEMERIS_TYPE":0,"CLASSIFICATION_TYPE":"U","NORAD_CAT_ID":48580,"ELEMENT_SET_NO":999,"REV_AT_EPOCH":26693,"BSTAR":0.0023075874,"MEAN_MOTION_DOT":0.00069639,"MEAN_MOTION_DDOT":0},{"OBJECT_NAME":"STARLINK-2235","OBJECT_ID":"2021-041AE","EPOCH":"2026-03-18T06:26:21.941664","MEAN_MOTION":15.06389725,"ECCENTRICITY":0.000141,"INCLINATION":53.056,"RA_OF_ASC_NODE":58.1175,"ARG_OF_PERICENTER":92.8644,"MEAN_ANOMALY":267.2507,"EPHEMERIS_TYPE":0,"CLASSIFICATION_TYPE":"U","NORAD_CAT_ID":48581,"ELEMENT_SET_NO":999,"REV_AT_EPOCH":26699,"BSTAR":4.8838607e-5,"MEAN_MOTION_DOT":4.46e-6,"MEAN_MOTION_DDOT":0},{"OBJECT_NAME":"STARLINK-2236","OBJECT_ID":"2021-041AF","EPOCH":"2026-03-18T02:48:07.022880","MEAN_MOTION":15.06599682,"ECCENTRICITY":0.00015833,"INCLINATION":53.055,"RA_OF_ASC_NODE":58.9476,"ARG_OF_PERICENTER":96.3293,"MEAN_ANOMALY":263.7877,"EPHEMERIS_TYPE":0,"CLASSIFICATION_TYPE":"U","NORAD_CAT_ID":48582,"ELEMENT_SET_NO":999,"REV_AT_EPOCH":26696,"BSTAR":0.00076505611,"MEAN_MOTION_DOT":0.00011194,"MEAN_MOTION_DDOT":0},{"OBJECT_NAME":"STARLINK-2237","OBJECT_ID":"2021-041AG","EPOCH":"2026-03-17T11:00:39.148416","MEAN_MOTION":15.06398298,"ECCENTRICITY":0.00012752,"INCLINATION":53.0542,"RA_OF_ASC_NODE":106.7416,"ARG_OF_PERICENTER":89.7855,"MEAN_ANOMALY":270.328,"EPHEMERIS_TYPE":0,"CLASSIFICATION_TYPE":"U","NORAD_CAT_ID":48583,"ELEMENT_SET_NO":999,"REV_AT_EPOCH":26623,"BSTAR":-2.6508703e-5,"MEAN_MOTION_DOT":-6.76e-6,"MEAN_MOTION_DDOT":0},{"OBJECT_NAME":"STARLINK-2238","OBJECT_ID":"2021-041AH","EPOCH":"2026-03-18T08:00:01.999872","MEAN_MOTION":15.30916356,"ECCENTRICITY":0.00013392,"INCLINATION":53.0536,"RA_OF_ASC_NODE":101.3577,"ARG_OF_PERICENTER":88.6989,"MEAN_ANOMALY":149.2568,"EPHEMERIS_TYPE":0,"CLASSIFICATION_TYPE":"U","NORAD_CAT_ID":48584,"ELEMENT_SET_NO":999,"REV_AT_EPOCH":576,"BSTAR":0.027979069,"MEAN_MOTION_DOT":0.00913656,"MEAN_MOTION_DDOT":0},{"OBJECT_NAME":"STARLINK-2241","OBJECT_ID":"2021-041AK","EPOCH":"2026-03-18T07:10:49.321344","MEAN_MOTION":15.06390393,"ECCENTRICITY":0.0001254,"INCLINATION":53.0551,"RA_OF_ASC_NODE":102.9695,"ARG_OF_PERICENTER":90.4629,"MEAN_ANOMALY":269.6504,"EPHEMERIS_TYPE":0,"CLASSIFICATION_TYPE":"U","NORAD_CAT_ID":48586,"ELEMENT_SET_NO":999,"REV_AT_EPOCH":26635,"BSTAR":0.00013586673,"MEAN_MOTION_DOT":1.742e-5,"MEAN_MOTION_DDOT":0},{"OBJECT_NAME":"STARLINK-2245","OBJECT_ID":"2021-041AN","EPOCH":"2026-03-18T07:25:16.220064","MEAN_MOTION":15.30199145,"ECCENTRICITY":0.0001294,"INCLINATION":53.1581,"RA_OF_ASC_NODE":86.6978,"ARG_OF_PERICENTER":79.2334,"MEAN_ANOMALY":280.8812,"EPHEMERIS_TYPE":0,"CLASSIFICATION_TYPE":"U","NORAD_CAT_ID":48589,"ELEMENT_SET_NO":999,"REV_AT_EPOCH":26659,"BSTAR":0.00027253447,"MEAN_MOTION_DOT":7.721e-5,"MEAN_MOTION_DDOT":0},{"OBJECT_NAME":"STARLINK-2249","OBJECT_ID":"2021-041AR","EPOCH":"2026-03-18T07:00:14.211360","MEAN_MOTION":15.06389137,"ECCENTRICITY":9.765e-5,"INCLINATION":53.056,"RA_OF_ASC_NODE":103.2299,"ARG_OF_PERICENTER":93.5706,"MEAN_ANOMALY":266.5395,"EPHEMERIS_TYPE":0,"CLASSIFICATION_TYPE":"U","NORAD_CAT_ID":48592,"ELEMENT_SET_NO":999,"REV_AT_EPOCH":26635,"BSTAR":5.4366696e-5,"MEAN_MOTION_DOT":5.28e-6,"MEAN_MOTION_DDOT":0}]
