STARLINK-2221           
1 48571U 21041U   26077.30661838  .00004715  00000+0  17128-3 0  9998
2 48571  53.1596  99.5603 0001384  89.8300 270.2859 15.30186388266417
STARLINK-2222           
1 48572U 21041V   26077.31392160  .00001005  00000+0  86373-4 0  9997
2 48572  53.0541 102.9020 0001304  84.4999 275.6138 15.06390498266361
STARLINK-2224           
1 48573U 21041W   26077.27869408  .00000906  00000+0  42730-4 0  9995
2 48573  53.1605  87.0379 0001025 114.1877 245.9232 15.30178961266585
STARLINK-2225           
1 48574U 21041X   26077.12372464  .00006785  00000+0  24096-3 0  9996
2 48574  53.1585  61.8252 0001701  93.9302 266.1893 15.30207182266925
STARLINK-2227           
1 48575U 21041Y   26077.16531220  .00003019  00000+0  11405-3 0  9995
2 48575  53.1609  48.8599 0001484  82.4453 277.6716 15.30193516267129
STARLINK-2228           
1 48576U 21041Z   26077.10687317  .00004093  00000+0  15029-3 0  9998
2 48576  53.1578  61.9137 0001094  70.5864 289.5255 15.30190081266932
STARLINK-2231           
1 48577U 21041AA  26077.26499282  .00004775  00000+0  17329-3 0  9990
2 48577  53.1597  87.0575 0001597 101.0646 259.0534 15.30192296266588
STARLINK-2232           
1 48578U 21041AB  26077.29130969  .00007108  00000+0  25198-3 0  9994
2 48578  53.1592  86.7490 0001294  96.3547 263.7602 15.30189371266595
STARLINK-2234           
1 48580U 21041AD  26077.13384779  .00069639  00000+0  23076-2 0  9999
2 48580  53.1600  61.7792 0002161 292.4192  67.6580 15.30669877266933
STARLINK-2235           
1 48581U 21041AE  26077.26830951  .00000446  00000+0  48839-4 0  9999
2 48581  53.0560  58.1175 0001410  92.8644 267.2507 15.06389725266990
STARLINK-2236           
1 48582U 21041AF  26077.11674795  .00011194  00000+0  76506-3 0  9999
2 48582  53.0550  58.9476 0001583  96.3293 263.7877 15.06599682266965
STARLINK-2237           
1 48583U 21041AG  26076.45878644 -.00000676  00000+0 -26509-4 0  9999
2 48583  53.0542 106.7416 0001275  89.7855 270.3280 15.06398298266233
STARLINK-2238           
1 48584U 21041AH  26077.33335648  .00913656  00000+0  27979-1 0  9998
2 48584  53.0536 101.3577 0001339  88.6989 149.2568 15.30916356  5763
STARLINK-2241           
1 48586U 21041AK  26077.29918196  .00001742  00000+0  13587-3 0  9996
2 48586  53.0551 102.9695 0001254  90.4629 269.6504 15.06390393266359
STARLINK-2245           
1 48589U 21041AN  26077.30921551  .00007721  00000+0  27253-3 0  9998
2 48589  53.1581  86.6978 0001294  79.2334 280.8812 15.30199145266592
STARLINK-2249           
1 48592U 21041AR  26077.29183115  .00000528  00000+0  54367-4 0  9991
2 48592  53.0560 103.2299 0000976  93.5706 266.5395 15.06389137266358
